$$SOE
2459580.500000000, A.D. 2022-Jan-01 00:00:00.0000, 3.139903685711990E+09, 4.942907422789639E+09, 4.413034639168684E+08,
2459587.500000000, A.D. 2022-Jan-08 00:00:00.0000, 3.137874554206808E+09, 4.944100659576811E+09, 4.429304036101475E+08,
2459594.500000000, A.D. 2022-Jan-15 00:00:00.0000, 3.135844589544057E+09, 4.945292725068390E+09, 4.445572385009975E+08,
2459601.500000000, A.D. 2022-Jan-22 00:00:00.0000, 3.133813796141515E+09, 4.946483617503719E+09, 4.461839678244483E+08,
2459608.500000000, A.D. 2022-Jan-29 00:00:00.0000, 3.131782178996153E+09, 4.947673337598783E+09, 4.478105909226933E+08,
2459615.500000000, A.D. 2022-Feb-05 00:00:00.0000, 3.129749741477059E+09, 4.948861887874533E+09, 4.494371073928561E+08,
2459622.500000000, A.D. 2022-Feb-12 00:00:00.0000, 3.127716485291685E+09, 4.950049270916971E+09, 4.510635169497120E+08,
2459629.500000000, A.D. 2022-Feb-19 00:00:00.0000, 3.125682411300633E+09, 4.951235488937994E+09, 4.526898193183589E+08,
2459636.500000000, A.D. 2022-Feb-26 00:00:00.0000, 3.123647519869624E+09, 4.952420543913981E+09, 4.543160142178614E+08,
2459643.500000000, A.D. 2022-Mar-05 00:00:00.0000, 3.121611810917904E+09, 4.953604437685278E+09, 4.559421013705993E+08,
2459650.500000000, A.D. 2022-Mar-12 00:00:00.0000, 3.119575283884933E+09, 4.954787171950928E+09, 4.575680805112984E+08,
2459657.500000000, A.D. 2022-Mar-19 00:00:00.0000, 3.117537937686392E+09, 4.955968748186831E+09, 4.591939513912368E+08,
2459664.500000000, A.D. 2022-Mar-26 00:00:00.0000, 3.115499770681930E+09, 4.957149167481601E+09, 4.608197137747788E+08,
2459671.500000000, A.D. 2022-Apr-02 00:00:00.0000, 3.113460780722432E+09, 4.958328430234466E+09, 4.624453674172068E+08,
2459678.500000000, A.D. 2022-Apr-09 00:00:00.0000, 3.111420965548887E+09, 4.959506535720307E+09, 4.640709119990466E+08,
2459685.500000000, A.D. 2022-Apr-16 00:00:00.0000, 3.109380323899964E+09, 4.960683482176111E+09, 4.656963470374177E+08,
2459692.500000000, A.D. 2022-Apr-23 00:00:00.0000, 3.107338856059450E+09, 4.961859268493296E+09, 4.673216719792533E+08,
2459699.500000000, A.D. 2022-Apr-30 00:00:00.0000, 3.105296561973364E+09, 4.963033895270798E+09, 4.689468864643648E+08,
2459706.500000000, A.D. 2022-May-07 00:00:00.0000, 3.103253439999522E+09, 4.964207363255503E+09, 4.705719903160746E+08,
2459713.500000000, A.D. 2022-May-14 00:00:00.0000, 3.101209487678876E+09, 4.965379672208246E+09, 4.721969833802257E+08,
2459720.500000000, A.D. 2022-May-21 00:00:00.0000, 3.099164702497616E+09, 4.966550820954248E+09, 4.738218654608564E+08,
2459727.500000000, A.D. 2022-May-28 00:00:00.0000, 3.097119082161182E+09, 4.967720807659220E+09, 4.754466363181362E+08,
2459734.500000000, A.D. 2022-Jun-04 00:00:00.0000, 3.095072624657345E+09, 4.968889630018465E+09, 4.770712956775830E+08,
2459741.500000000, A.D. 2022-Jun-11 00:00:00.0000, 3.093025328253034E+09, 4.970057285361273E+09, 4.786958432375383E+08,
2459748.500000000, A.D. 2022-Jun-18 00:00:00.0000, 3.090977191463662E+09, 4.971223770684113E+09, 4.803202786724737E+08,
2459755.500000000, A.D. 2022-Jun-25 00:00:00.0000, 3.088928213024405E+09, 4.972389082579668E+09, 4.819446016268091E+08,
2459762.500000000, A.D. 2022-Jul-02 00:00:00.0000, 3.086878391997519E+09, 4.973553216996235E+09, 4.835688116816797E+08,
2459769.500000000, A.D. 2022-Jul-09 00:00:00.0000, 3.084827728406012E+09, 4.974716169004683E+09, 4.851929082734382E+08,
2459776.500000000, A.D. 2022-Jul-16 00:00:00.0000, 3.082776224338504E+09, 4.975877933655945E+09, 4.868168906575937E+08,
2459783.500000000, A.D. 2022-Jul-23 00:00:00.0000, 3.080723883326898E+09, 4.977038508006859E+09, 4.884407581263828E+08,
2459790.500000000, A.D. 2022-Jul-30 00:00:00.0000, 3.078670708080964E+09, 4.978197890960464E+09, 4.900645101983707E+08,
2459797.500000000, A.D. 2022-Aug-06 00:00:00.0000, 3.076616700178572E+09, 4.979356081568915E+09, 4.916881465031927E+08,
2459804.500000000, A.D. 2022-Aug-13 00:00:00.0000, 3.074561860888406E+09, 4.980513078553454E+09, 4.933116666622765E+08,
2459811.500000000, A.D. 2022-Aug-20 00:00:00.0000, 3.072506191555819E+09, 4.981668880538046E+09, 4.949350702686093E+08,
2459818.500000000, A.D. 2022-Aug-27 00:00:00.0000, 3.070449693619935E+09, 4.982823486270115E+09, 4.965583569001336E+08,
2459825.500000000, A.D. 2022-Sep-03 00:00:00.0000, 3.068392368509966E+09, 4.983976894717834E+09, 4.981815261352077E+08,
2459832.500000000, A.D. 2022-Sep-10 00:00:00.0000, 3.066334217510809E+09, 4.985129105067888E+09, 4.998045775639250E+08,
2459839.500000000, A.D. 2022-Sep-17 00:00:00.0000, 3.064275241627353E+09, 4.986280116621964E+09, 5.014275107925222E+08,
2459846.500000000, A.D. 2022-Sep-24 00:00:00.0000, 3.062215441507933E+09, 4.987429928541108E+09, 5.030503254311275E+08,
2459853.500000000, A.D. 2022-Oct-01 00:00:00.0000, 3.060154817666890E+09, 4.988578539415625E+09, 5.046730210409288E+08,
2459860.500000000, A.D. 2022-Oct-08 00:00:00.0000, 3.058093371413573E+09, 4.989725947182625E+09, 5.062955970458577E+08,
2459867.500000000, A.D. 2022-Oct-15 00:00:00.0000, 3.056031105555914E+09, 4.990872150590385E+09, 5.079180527920413E+08,
2459874.500000000, A.D. 2022-Oct-22 00:00:00.0000, 3.053968022697012E+09, 4.992017150525635E+09, 5.095403878172488E+08,
2459881.500000000, A.D. 2022-Oct-29 00:00:00.0000, 3.051904123622531E+09, 4.993160948610277E+09, 5.111626018889792E+08,
2459888.500000000, A.D. 2022-Nov-05 00:00:00.0000, 3.049839407878230E+09, 4.994303545808700E+09, 5.127846948423955E+08,
2459895.500000000, A.D. 2022-Nov-12 00:00:00.0000, 3.047773874572794E+09, 4.995444942312895E+09, 5.144066665016057E+08,
2459902.500000000, A.D. 2022-Nov-19 00:00:00.0000, 3.045707522686610E+09, 4.996585137751270E+09, 5.160285166721525E+08,
2459909.500000000, A.D. 2022-Nov-26 00:00:00.0000, 3.043640351148674E+09, 4.997724131323828E+09, 5.176502451480100E+08,
2459916.500000000, A.D. 2022-Dec-03 00:00:00.0000, 3.041572358847697E+09, 4.998861921852176E+09, 5.192718517168326E+08,
2459923.500000000, A.D. 2022-Dec-10 00:00:00.0000, 3.039503544622910E+09, 4.999998507763079E+09, 5.208933361607521E+08,
2459930.500000000, A.D. 2022-Dec-17 00:00:00.0000, 3.037433907259293E+09, 5.001133886980525E+09, 5.225146982484090E+08,
2459937.500000000, A.D. 2022-Dec-24 00:00:00.0000, 3.035363445596628E+09, 5.002268056660518E+09, 5.241359377028120E+08,
2459944.500000000, A.D. 2022-Dec-31 00:00:00.0000, 3.033292159109991E+09, 5.003401012876051E+09, 5.257570541210649E+08,
2459951.500000000, A.D. 2023-Jan-07 00:00:00.0000, 3.031220049084419E+09, 5.004532751214719E+09, 5.273780469133949E+08,
2459958.500000000, A.D. 2023-Jan-14 00:00:00.0000, 3.029147118416720E+09, 5.005663268785719E+09, 5.289989154825778E+08,
2459965.500000000, A.D. 2023-Jan-21 00:00:00.0000, 3.027073369399673E+09, 5.006792564463633E+09, 5.306196594437008E+08,
2459972.500000000, A.D. 2023-Jan-28 00:00:00.0000, 3.024998803156643E+09, 5.007920637173509E+09, 5.322402785319185E+08,
2459979.500000000, A.D. 2023-Feb-04 00:00:00.0000, 3.022923420518033E+09, 5.009047485244948E+09, 5.338607724648333E+08,
2459986.500000000, A.D. 2023-Feb-11 00:00:00.0000, 3.020847222544380E+09, 5.010173106641712E+09, 5.354811409084635E+08,
2459993.500000000, A.D. 2023-Feb-18 00:00:00.0000, 3.018770210632908E+09, 5.011297499243768E+09, 5.371013834854188E+08,
2460000.500000000, A.D. 2023-Feb-25 00:00:00.0000, 3.016692386470429E+09, 5.012420661020174E+09, 5.387214997881172E+08,
2460007.500000000, A.D. 2023-Mar-04 00:00:00.0000, 3.014613751934958E+09, 5.013542590111854E+09, 5.403414893893595E+08,
2460014.500000000, A.D. 2023-Mar-11 00:00:00.0000, 3.012534308974860E+09, 5.014663284824975E+09, 5.419613518478537E+08,
2460021.500000000, A.D. 2023-Mar-18 00:00:00.0000, 3.010454059512764E+09, 5.015782743485711E+09, 5.435810867005522E+08,
2460028.500000000, A.D. 2023-Mar-25 00:00:00.0000, 3.008373005577775E+09, 5.016900964109431E+09, 5.452006934194975E+08,
2460035.500000000, A.D. 2023-Apr-01 00:00:00.0000, 3.006291150090676E+09, 5.018017944277940E+09, 5.468201713266146E+08,
2460042.500000000, A.D. 2023-Apr-08 00:00:00.0000, 3.004208497686909E+09, 5.019133682449935E+09, 5.484395196232135E+08,
2460049.500000000, A.D. 2023-Apr-15 00:00:00.0000, 3.002125053240400E+09, 5.020248179598690E+09, 5.500587376583207E+08,
2460056.500000000, A.D. 2023-Apr-22 00:00:00.0000, 3.000040819897558E+09, 5.021361438125132E+09, 5.516778250206101E+08,
2460063.500000000, A.D. 2023-Apr-29 00:00:00.0000, 2.997955799356511E+09, 5.022473460299251E+09, 5.532967813872156E+08,
2460070.500000000, A.D. 2023-May-06 00:00:00.0000, 2.995869992631435E+09, 5.023584248011110E+09, 5.549156064364011E+08,
2460077.500000000, A.D. 2023-May-13 00:00:00.0000, 2.993783400325200E+09, 5.024693802937998E+09, 5.565342998405657E+08,
2460084.500000000, A.D. 2023-May-20 00:00:00.0000, 2.991696022644527E+09, 5.025802126636719E+09, 5.581528612777870E+08,
2460091.500000000, A.D. 2023-May-27 00:00:00.0000, 2.989607859351160E+09, 5.026909220531695E+09, 5.597712904415300E+08,
2460098.500000000, A.D. 2023-Jun-03 00:00:00.0000, 2.987518909706645E+09, 5.028015085824911E+09, 5.613895870450900E+08,
2460105.500000000, A.D. 2023-Jun-10 00:00:00.0000, 2.985429172434501E+09, 5.029119723314016E+09, 5.630077508171728E+08,
2460112.500000000, A.D. 2023-Jun-17 00:00:00.0000, 2.983338645788833E+09, 5.030223133058539E+09, 5.646257814752722E+08,
2460119.500000000, A.D. 2023-Jun-24 00:00:00.0000, 2.981247328049363E+09, 5.031325313949870E+09, 5.662436786517770E+08,
2460126.500000000, A.D. 2023-Jul-01 00:00:00.0000, 2.979155218696034E+09, 5.032426264013200E+09, 5.678614418170445E+08,
2460133.500000000, A.D. 2023-Jul-08 00:00:00.0000, 2.977062318589191E+09, 5.033525982263485E+09, 5.694790704199975E+08,
2460140.500000000, A.D. 2023-Jul-15 00:00:00.0000, 2.974968627878589E+09, 5.034624469285730E+09, 5.710965641319833E+08,
2460147.500000000, A.D. 2023-Jul-22 00:00:00.0000, 2.972874145162608E+09, 5.035721725505223E+09, 5.727139227862566E+08,
2460154.500000000, A.D. 2023-Jul-29 00:00:00.0000, 2.970778868384633E+09, 5.036817750292729E+09, 5.743311462253983E+08,
$$EOE